{
  "type": "FeatureCollection",
  "features": [
    {
      "type": "Feature",
      "properties": {
        "norad_id": 58647,
        "name": "TIANMU-1 13",
        "group": "weather",
        "lat": 15.604968969629377,
        "lon": 178.15394749073835,
        "alt_km": 497.58219577935597,
        "timestamp": "2025-12-02T06:27:52.664280+00:00",
        "meta_object_name": "TIANMU-1 13",
        "meta_object_id": "2023-205C",
        "meta_epoch": "2025-12-01T20:17:36.448800",
        "meta_mean_motion": 15.24308305,
        "meta_eccentricity": 0.0006508,
        "meta_inclination": 97.3634,
        "meta_ra_of_asc_node": 355.6677,
        "meta_arg_of_pericenter": 315.893,
        "meta_mean_anomaly": 44.1787,
        "meta_ephemeris_type": 0,
        "meta_classification_type": "U",
        "meta_norad_cat_id": 58647,
        "meta_element_set_no": 999,
        "meta_rev_at_epoch": 10741,
        "meta_bstar": 0.00027821,
        "meta_mean_motion_dot": 6.734e-05,
        "meta_mean_motion_ddot": 0,
        "tle_line1": "1 58647U 23205C   25335.84556075  .00006734  00000+0  27821-3 0  9992",
        "tle_line2": "2 58647  97.3634 355.6677 0006508 315.8930  44.1787 15.24308305107416"
      },
      "geometry": {
        "type": "Point",
        "coordinates": [
          178.15394749073835,
          15.604968969629377
        ]
      }
    },
    {
      "type": "Feature",
      "properties": {
        "norad_id": 58648,
        "name": "TIANMU-1 14",
        "group": "weather",
        "lat": -74.0294661394286,
        "lon": 148.60627199429757,
        "alt_km": 497.8760498744605,
        "timestamp": "2025-12-02T06:27:52.664293+00:00",
        "meta_object_name": "TIANMU-1 14",
        "meta_object_id": "2023-205D",
        "meta_epoch": "2025-12-01T19:53:32.113824",
        "meta_mean_motion": 15.24292457,
        "meta_eccentricity": 0.0007441,
        "meta_inclination": 97.3566,
        "meta_ra_of_asc_node": 355.0101,
        "meta_arg_of_pericenter": 319.96,
        "meta_mean_anomaly": 40.1088,
        "meta_ephemeris_type": 0,
        "meta_classification_type": "U",
        "meta_norad_cat_id": 58648,
        "meta_element_set_no": 999,
        "meta_rev_at_epoch": 10741,
        "meta_bstar": 0.00027823,
        "meta_mean_motion_dot": 6.733e-05,
        "meta_mean_motion_ddot": 0,
        "tle_line1": "1 58648U 23205D   25335.82884391  .00006733  00000+0  27823-3 0  9997",
        "tle_line2": "2 58648  97.3566 355.0101 0007441 319.9600  40.1088 15.24292457107413"
      },
      "geometry": {
        "type": "Point",
        "coordinates": [
          148.60627199429757,
          -74.0294661394286
        ]
      }
    },
    {
      "type": "Feature",
      "properties": {
        "norad_id": 58660,
        "name": "TIANMU-1 19",
        "group": "weather",
        "lat": 26.385044446892376,
        "lon": 83.61326280470861,
        "alt_km": 482.1414919522058,
        "timestamp": "2025-12-02T06:27:52.664303+00:00",
        "meta_object_name": "TIANMU-1 19",
        "meta_object_id": "2023-208A",
        "meta_epoch": "2025-12-01T20:54:55.681056",
        "meta_mean_motion": 15.27534831,
        "meta_eccentricity": 0.0004192,
        "meta_inclination": 97.4387,
        "meta_ra_of_asc_node": 86.9327,
        "meta_arg_of_pericenter": 301.3186,
        "meta_mean_anomaly": 58.7642,
        "meta_ephemeris_type": 0,
        "meta_classification_type": "U",
        "meta_norad_cat_id": 58660,
        "meta_element_set_no": 999,
        "meta_rev_at_epoch": 10716,
        "meta_bstar": 0.00038924,
        "meta_mean_motion_dot": 0.00010415,
        "meta_mean_motion_ddot": 0,
        "tle_line1": "1 58660U 23208A   25335.87147779  .00010415  00000+0  38924-3 0  9997",
        "tle_line2": "2 58660  97.4387  86.9327 0004192 301.3186  58.7642 15.27534831107164"
      },
      "geometry": {
        "type": "Point",
        "coordinates": [
          83.61326280470861,
          26.385044446892376
        ]
      }
    },
    {
      "type": "Feature",
      "properties": {
        "norad_id": 58661,
        "name": "TIANMU-1 20",
        "group": "weather",
        "lat": 55.37794509491005,
        "lon": 76.86768143844266,
        "alt_km": 475.6484832555143,
        "timestamp": "2025-12-02T06:27:52.664314+00:00",
        "meta_object_name": "TIANMU-1 20",
        "meta_object_id": "2023-208B",
        "meta_epoch": "2025-12-01T20:47:40.456608",
        "meta_mean_motion": 15.28727851,
        "meta_eccentricity": 0.0006553,
        "meta_inclination": 97.4325,
        "meta_ra_of_asc_node": 87.3646,
        "meta_arg_of_pericenter": 310.9403,
        "meta_mean_anomaly": 49.1269,
        "meta_ephemeris_type": 0,
        "meta_classification_type": "U",
        "meta_norad_cat_id": 58661,
        "meta_element_set_no": 999,
        "meta_rev_at_epoch": 10723,
        "meta_bstar": 0.00037009,
        "meta_mean_motion_dot": 0.0001027,
        "meta_mean_motion_ddot": 0,
        "tle_line1": "1 58661U 23208B   25335.86644047  .00010270  00000+0  37009-3 0  9999",
        "tle_line2": "2 58661  97.4325  87.3646 0006553 310.9403  49.1269 15.28727851107231"
      },
      "geometry": {
        "type": "Point",
        "coordinates": [
          76.86768143844266,
          55.37794509491005
        ]
      }
    },
    {
      "type": "Feature",
      "properties": {
        "norad_id": 58662,
        "name": "TIANMU-1 21",
        "group": "weather",
        "lat": -32.51500619418836,
        "lon": 94.4051807575194,
        "alt_km": 474.6395716957113,
        "timestamp": "2025-12-02T06:27:52.664324+00:00",
        "meta_object_name": "TIANMU-1 21",
        "meta_object_id": "2023-208C",
        "meta_epoch": "2025-12-01T19:37:43.061664",
        "meta_mean_motion": 15.31183282,
        "meta_eccentricity": 0.000605,
        "meta_inclination": 97.4372,
        "meta_ra_of_asc_node": 89.176,
        "meta_arg_of_pericenter": 305.6371,
        "meta_mean_anomaly": 54.4306,
        "meta_ephemeris_type": 0,
        "meta_classification_type": "U",
        "meta_norad_cat_id": 58662,
        "meta_element_set_no": 999,
        "meta_rev_at_epoch": 10732,
        "meta_bstar": 0.0003852,
        "meta_mean_motion_dot": 0.00011536,
        "meta_mean_motion_ddot": 0,
        "tle_line1": "1 58662U 23208C   25335.81785951  .00011536  00000+0  38520-3 0  9990",
        "tle_line2": "2 58662  97.4372  89.1760 0006050 305.6371  54.4306 15.31183282107327"
      },
      "geometry": {
        "type": "Point",
        "coordinates": [
          94.4051807575194,
          -32.51500619418836
        ]
      }
    },
    {
      "type": "Feature",
      "properties": {
        "norad_id": 58663,
        "name": "TIANMU-1 22",
        "group": "weather",
        "lat": 36.317466513913594,
        "lon": 81.88247754817358,
        "alt_km": 480.30933708108023,
        "timestamp": "2025-12-02T06:27:52.664334+00:00",
        "meta_object_name": "TIANMU-1 22",
        "meta_object_id": "2023-208D",
        "meta_epoch": "2025-12-01T20:52:12.994176",
        "meta_mean_motion": 15.27311059,
        "meta_eccentricity": 0.0003191,
        "meta_inclination": 97.4382,
        "meta_ra_of_asc_node": 86.9946,
        "meta_arg_of_pericenter": 337.3363,
        "meta_mean_anomaly": 22.7735,
        "meta_ephemeris_type": 0,
        "meta_classification_type": "U",
        "meta_norad_cat_id": 58663,
        "meta_element_set_no": 999,
        "meta_rev_at_epoch": 10717,
        "meta_bstar": 0.00036008,
        "meta_mean_motion_dot": 9.562e-05,
        "meta_mean_motion_ddot": 0,
        "tle_line1": "1 58663U 23208D   25335.86959484  .00009562  00000+0  36008-3 0  9995",
        "tle_line2": "2 58663  97.4382  86.9946 0003191 337.3363  22.7735 15.27311059107173"
      },
      "geometry": {
        "type": "Point",
        "coordinates": [
          81.88247754817358,
          36.317466513913594
        ]
      }
    },
    {
      "type": "Feature",
      "properties": {
        "norad_id": 58700,
        "name": "TIANMU-1 15",
        "group": "weather",
        "lat": -81.00943489765497,
        "lon": -146.27452080307026,
        "alt_km": 498.085841095035,
        "timestamp": "2025-12-02T06:27:52.664344+00:00",
        "meta_object_name": "TIANMU-1 15",
        "meta_object_id": "2024-004A",
        "meta_epoch": "2025-12-01T19:48:33.143904",
        "meta_mean_motion": 15.24448553,
        "meta_eccentricity": 0.0005913,
        "meta_inclination": 97.463,
        "meta_ra_of_asc_node": 157.3347,
        "meta_arg_of_pericenter": 341.8659,
        "meta_mean_anomaly": 18.2366,
        "meta_ephemeris_type": 0,
        "meta_classification_type": "U",
        "meta_norad_cat_id": 58700,
        "meta_element_set_no": 999,
        "meta_rev_at_epoch": 10568,
        "meta_bstar": 0.00029409,
        "meta_mean_motion_dot": 7.151e-05,
        "meta_mean_motion_ddot": 0,
        "tle_line1": "1 58700U 24004A   25335.82538361  .00007151  00000+0  29409-3 0  9994",
        "tle_line2": "2 58700  97.4630 157.3347 0005913 341.8659  18.2366 15.24448553105682"
      },
      "geometry": {
        "type": "Point",
        "coordinates": [
          -146.27452080307026,
          -81.00943489765497
        ]
      }
    }
  ]
}